{"fetched_at":"2026-03-30T06:02:59Z","count":15439,"tles":[{"name":"STARLINK-6142","line1":"1 57113U 23090N   26087.90641379  .00000812  00000+0  75174-4 0  9991","line2":"2 57113  43.0035 170.2703 0002083 276.5218  83.5387 15.02537096153302","category":"Starlink"}]}